[{"CCSDS_OMM_VERS":"3.0","COMMENT":"GENERATED VIA SPACE-TRACK.ORG API","CREATION_DATE":"2026-03-28T16:46:22","ORIGINATOR":"18 SPCS","OBJECT_NAME":"COSMOS 2251 DEB","OBJECT_ID":"1993-036BRU","CENTER_NAME":"EARTH","REF_FRAME":"TEME","TIME_SYSTEM":"UTC","MEAN_ELEMENT_THEORY":"SGP4","EPOCH":"2026-03-28T08:10:17.154048","MEAN_MOTION":"15.00788922","ECCENTRICITY":"0.00163360","INCLINATION":"74.0050","RA_OF_ASC_NODE":"76.1761","ARG_OF_PERICENTER":"204.6989","MEAN_ANOMALY":"224.2783","EPHEMERIS_TYPE":"0","CLASSIFICATION_TYPE":"U","NORAD_CAT_ID":"38062","ELEMENT_SET_NO":"999","REV_AT_EPOCH":"64611","BSTAR":"0.00225190000000","MEAN_MOTION_DOT":"0.00028753","MEAN_MOTION_DDOT":"0.0000000000000","SEMIMAJOR_AXIS":"6942.599","PERIOD":"95.950","APOAPSIS":"575.806","PERIAPSIS":"553.123","OBJECT_TYPE":"DEBRIS","RCS_SIZE":"SMALL","COUNTRY_CODE":"CIS","LAUNCH_DATE":"1993-06-16","SITE":"PKMTR","DECAY_DATE":null,"FILE":"5103718","GP_ID":"317424082","TLE_LINE0":"0 COSMOS 2251 DEB","TLE_LINE1":"1 38062U 93036BRU 26087.34047632  .00028753  00000-0  22519-2 0  9998","TLE_LINE2":"2 38062  74.0050  76.1761 0016336 204.6989 224.2783 15.00788922646110"},{"CCSDS_OMM_VERS":"3.0","COMMENT":"GENERATED VIA SPACE-TRACK.ORG API","CREATION_DATE":"2023-12-17T21:08:02","ORIGINATOR":"18 SPCS","OBJECT_NAME":"COSMOS 2251 DEB","OBJECT_ID":"1993-036BRV","CENTER_NAME":"EARTH","REF_FRAME":"TEME","TIME_SYSTEM":"UTC","MEAN_ELEMENT_THEORY":"SGP4","EPOCH":"2023-12-17T00:10:43.906368","MEAN_MOTION":"15.48531117","ECCENTRICITY":"0.00315140","INCLINATION":"73.9891","RA_OF_ASC_NODE":"229.6349","ARG_OF_PERICENTER":"146.3019","MEAN_ANOMALY":"214.0206","EPHEMERIS_TYPE":"0","CLASSIFICATION_TYPE":"U","NORAD_CAT_ID":"38063","ELEMENT_SET_NO":"999","REV_AT_EPOCH":"62771","BSTAR":"0.00430860000000","MEAN_MOTION_DOT":"0.00241038","MEAN_MOTION_DDOT":"0.0000000000000","SEMIMAJOR_AXIS":"6799.159","PERIOD":"92.991","APOAPSIS":"442.451","PERIAPSIS":"399.597","OBJECT_TYPE":"DEBRIS","RCS_SIZE":"SMALL","COUNTRY_CODE":"CIS","LAUNCH_DATE":"1993-06-16","SITE":"PKMTR","DECAY_DATE":"2024-01-19","FILE":"4138654","GP_ID":"244945680","TLE_LINE0":"0 COSMOS 2251 DEB","TLE_LINE1":"1 38063U 93036BRV 23351.00745262  .00241038  00000-0  43086-2 0  9992","TLE_LINE2":"2 38063  73.9891 229.6349 0031514 146.3019 214.0206 15.48531117627716"},{"CCSDS_OMM_VERS":"3.0","COMMENT":"GENERATED VIA SPACE-TRACK.ORG API","CREATION_DATE":"2026-03-28T08:46:24","ORIGINATOR":"18 SPCS","OBJECT_NAME":"COSMOS 2251 DEB","OBJECT_ID":"1993-036BRW","CENTER_NAME":"EARTH","REF_FRAME":"TEME","TIME_SYSTEM":"UTC","MEAN_ELEMENT_THEORY":"SGP4","EPOCH":"2026-03-27T22:57:37.863072","MEAN_MOTION":"14.57147435","ECCENTRICITY":"0.00457640","INCLINATION":"74.0214","RA_OF_ASC_NODE":"284.2281","ARG_OF_PERICENTER":"16.9238","MEAN_ANOMALY":"343.3440","EPHEMERIS_TYPE":"0","CLASSIFICATION_TYPE":"U","NORAD_CAT_ID":"38064","ELEMENT_SET_NO":"999","REV_AT_EPOCH":"73397","BSTAR":"0.00059578000000","MEAN_MOTION_DOT":"0.00002697","MEAN_MOTION_DDOT":"0.0000000000000","SEMIMAJOR_AXIS":"7080.537","PERIOD":"98.823","APOAPSIS":"734.805","PERIAPSIS":"669.998","OBJECT_TYPE":"DEBRIS","RCS_SIZE":"SMALL","COUNTRY_CODE":"CIS","LAUNCH_DATE":"1993-06-16","SITE":"PKMTR","DECAY_DATE":null,"FILE":"5102750","GP_ID":"317368287","TLE_LINE0":"0 COSMOS 2251 DEB","TLE_LINE1":"1 38064U 93036BRW 26086.95668823  .00002697  00000-0  59578-3 0  9992","TLE_LINE2":"2 38064  74.0214 284.2281 0045764  16.9238 343.3440 14.57147435733974"},{"CCSDS_OMM_VERS":"3.0","COMMENT":"GENERATED VIA SPACE-TRACK.ORG API","CREATION_DATE":"2024-11-26T06:58:39","ORIGINATOR":"18 SPCS","OBJECT_NAME":"COSMOS 2251 DEB","OBJECT_ID":"1993-036BRX","CENTER_NAME":"EARTH","REF_FRAME":"TEME","TIME_SYSTEM":"UTC","MEAN_ELEMENT_THEORY":"SGP4","EPOCH":"2024-11-25T20:25:23.450304","MEAN_MOTION":"15.91114928","ECCENTRICITY":"0.00213870","INCLINATION":"73.9767","RA_OF_ASC_NODE":"31.9851","ARG_OF_PERICENTER":"344.6739","MEAN_ANOMALY":"15.3844","EPHEMERIS_TYPE":"0","CLASSIFICATION_TYPE":"U","NORAD_CAT_ID":"38065","ELEMENT_SET_NO":"999","REV_AT_EPOCH":"69404","BSTAR":"0.02372900000000","MEAN_MOTION_DOT":"0.05945357","MEAN_MOTION_DDOT":"0.0529550000000","SEMIMAJOR_AXIS":"6677.299","PERIOD":"90.503","APOAPSIS":"313.444","PERIAPSIS":"284.883","OBJECT_TYPE":"DEBRIS","RCS_SIZE":"SMALL","COUNTRY_CODE":"CIS","LAUNCH_DATE":"1993-06-16","SITE":"PKMTR","DECAY_DATE":"2024-11-30","FILE":"4563688","GP_ID":"274029765","TLE_LINE0":"0 COSMOS 2251 DEB","TLE_LINE1":"1 38065U 93036BRX 24330.85096586  .05945357  52955-1  23729-1 0  9991","TLE_LINE2":"2 38065  73.9767  31.9851 0021387 344.6739  15.3844 15.91114928694046"},{"CCSDS_OMM_VERS":"3.0","COMMENT":"GENERATED VIA SPACE-TRACK.ORG API","CREATION_DATE":"2023-04-05T22:26:13","ORIGINATOR":"18 SPCS","OBJECT_NAME":"COSMOS 2251 DEB","OBJECT_ID":"1993-036BRY","CENTER_NAME":"EARTH","REF_FRAME":"TEME","TIME_SYSTEM":"UTC","MEAN_ELEMENT_THEORY":"SGP4","EPOCH":"2023-04-01T00:58:41.899872","MEAN_MOTION":"15.63177719","ECCENTRICITY":"0.00172640","INCLINATION":"73.9839","RA_OF_ASC_NODE":"309.9740","ARG_OF_PERICENTER":"191.6078","MEAN_ANOMALY":"168.4747","EPHEMERIS_TYPE":"0","CLASSIFICATION_TYPE":"U","NORAD_CAT_ID":"38066","ELEMENT_SET_NO":"999","REV_AT_EPOCH":"62386","BSTAR":"0.02875200000000","MEAN_MOTION_DOT":"0.03034842","MEAN_MOTION_DDOT":"0.0000000000000","SEMIMAJOR_AXIS":"6756.622","PERIOD":"92.120","APOAPSIS":"390.151","PERIAPSIS":"366.822","OBJECT_TYPE":"DEBRIS","RCS_SIZE":"SMALL","COUNTRY_CODE":"CIS","LAUNCH_DATE":"1993-06-16","SITE":"PKMTR","DECAY_DATE":"2023-04-05","FILE":"3880953","GP_ID":"229543184","TLE_LINE0":"0 COSMOS 2251 DEB","TLE_LINE1":"1 38066U 93036BRY 23091.04076273  .03034842  00000-0  28752-1 0  9997","TLE_LINE2":"2 38066  73.9839 309.9740 0017264 191.6078 168.4747 15.63177719623867"},{"CCSDS_OMM_VERS":"3.0","COMMENT":"GENERATED VIA SPACE-TRACK.ORG API","CREATION_DATE":"2026-03-27T08:16:37","ORIGINATOR":"18 SPCS","OBJECT_NAME":"COSMOS 2251 DEB","OBJECT_ID":"1993-036BRZ","CENTER_NAME":"EARTH","REF_FRAME":"TEME","TIME_SYSTEM":"UTC","MEAN_ELEMENT_THEORY":"SGP4","EPOCH":"2026-03-26T22:51:25.015104","MEAN_MOTION":"14.61513692","ECCENTRICITY":"0.00706520","INCLINATION":"74.0177","RA_OF_ASC_NODE":"74.9766","ARG_OF_PERICENTER":"198.6194","MEAN_ANOMALY":"191.1142","EPHEMERIS_TYPE":"0","CLASSIFICATION_TYPE":"U","NORAD_CAT_ID":"38067","ELEMENT_SET_NO":"999","REV_AT_EPOCH":"64078","BSTAR":"0.00024996000000","MEAN_MOTION_DOT":"0.00001252","MEAN_MOTION_DDOT":"0.0000000000000","SEMIMAJOR_AXIS":"7066.428","PERIOD":"98.528","APOAPSIS":"738.218","PERIAPSIS":"638.367","OBJECT_TYPE":"DEBRIS","RCS_SIZE":"SMALL","COUNTRY_CODE":"CIS","LAUNCH_DATE":"1993-06-16","SITE":"PKMTR","DECAY_DATE":null,"FILE":"5100351","GP_ID":"317211535","TLE_LINE0":"0 COSMOS 2251 DEB","TLE_LINE1":"1 38067U 93036BRZ 26085.95237286  .00001252  00000-0  24996-3 0  9991","TLE_LINE2":"2 38067  74.0177  74.9766 0070652 198.6194 191.1142 14.61513692640781"},{"CCSDS_OMM_VERS":"3.0","COMMENT":"GENERATED VIA SPACE-TRACK.ORG API","CREATION_DATE":"2026-03-28T16:46:22","ORIGINATOR":"18 SPCS","OBJECT_NAME":"COSMOS 2251 DEB","OBJECT_ID":"1993-036BSA","CENTER_NAME":"EARTH","REF_FRAME":"TEME","TIME_SYSTEM":"UTC","MEAN_ELEMENT_THEORY":"SGP4","EPOCH":"2026-03-28T11:23:09.945024","MEAN_MOTION":"14.36179829","ECCENTRICITY":"0.00261360","INCLINATION":"74.0195","RA_OF_ASC_NODE":"113.9319","ARG_OF_PERICENTER":"183.8605","MEAN_ANOMALY":"176.2350","EPHEMERIS_TYPE":"0","CLASSIFICATION_TYPE":"U","NORAD_CAT_ID":"38068","ELEMENT_SET_NO":"999","REV_AT_EPOCH":"68164","BSTAR":"0.00019884000000","MEAN_MOTION_DOT":"0.00000556","MEAN_MOTION_DDOT":"0.0000000000000","SEMIMAJOR_AXIS":"7149.285","PERIOD":"100.266","APOAPSIS":"789.836","PERIAPSIS":"752.465","OBJECT_TYPE":"DEBRIS","RCS_SIZE":"SMALL","COUNTRY_CODE":"CIS","LAUNCH_DATE":"1993-06-16","SITE":"PKMTR","DECAY_DATE":null,"FILE":"5103718","GP_ID":"317424583","TLE_LINE0":"0 COSMOS 2251 DEB","TLE_LINE1":"1 38068U 93036BSA 26087.47442066  .00000556  00000-0  19884-3 0  9991","TLE_LINE2":"2 38068  74.0195 113.9319 0026136 183.8605 176.2350 14.36179829681648"},{"CCSDS_OMM_VERS":"3.0","COMMENT":"GENERATED VIA SPACE-TRACK.ORG API","CREATION_DATE":"2024-09-28T22:56:17","ORIGINATOR":"18 SPCS","OBJECT_NAME":"COSMOS 2251 DEB","OBJECT_ID":"1993-036BSB","CENTER_NAME":"EARTH","REF_FRAME":"TEME","TIME_SYSTEM":"UTC","MEAN_ELEMENT_THEORY":"SGP4","EPOCH":"2024-09-27T20:05:04.620192","MEAN_MOTION":"15.09295685","ECCENTRICITY":"0.00384150","INCLINATION":"74.1458","RA_OF_ASC_NODE":"213.8866","ARG_OF_PERICENTER":"130.3214","MEAN_ANOMALY":"260.2439","EPHEMERIS_TYPE":"0","CLASSIFICATION_TYPE":"U","NORAD_CAT_ID":"38069","ELEMENT_SET_NO":"999","REV_AT_EPOCH":"69106","BSTAR":"0.02614100000000","MEAN_MOTION_DOT":"0.00450236","MEAN_MOTION_DDOT":"0.0000000000000","SEMIMAJOR_AXIS":"6916.488","PERIOD":"95.409","APOAPSIS":"564.923","PERIAPSIS":"511.783","OBJECT_TYPE":"DEBRIS","RCS_SIZE":"SMALL","COUNTRY_CODE":"CIS","LAUNCH_DATE":"1993-06-16","SITE":"PKMTR","DECAY_DATE":"2024-11-01","FILE":"4508372","GP_ID":"269200366","TLE_LINE0":"0 COSMOS 2251 DEB","TLE_LINE1":"1 38069U 93036BSB 24271.83685903  .00450236  00000-0  26141-1 0  9990","TLE_LINE2":"2 38069  74.1458 213.8866 0038415 130.3214 260.2439 15.09295685691064"}]